[{"OBJECT_NAME":"STARLINK-34308","OBJECT_ID":"2025-120C","EPOCH":"2026-03-09T12:48:49.803264","MEAN_MOTION":15.30200209,"ECCENTRICITY":0.00014416,"INCLINATION":53.1588,"RA_OF_ASC_NODE":117.3241,"ARG_OF_PERICENTER":64.5861,"MEAN_ANOMALY":295.5289,"EPHEMERIS_TYPE":0,"CLASSIFICATION_TYPE":"U","NORAD_CAT_ID":64258,"ELEMENT_SET_NO":999,"REV_AT_EPOCH":4384,"BSTAR":0.00079508208,"MEAN_MOTION_DOT":0.00023263,"MEAN_MOTION_DDOT":0},{"OBJECT_NAME":"COSMOS 1263","OBJECT_ID":"1981-033A","EPOCH":"2026-03-09T22:16:18.723072","MEAN_MOTION":14.29193035,"ECCENTRICITY":0.05805392,"INCLINATION":82.8561,"RA_OF_ASC_NODE":296.4467,"ARG_OF_PERICENTER":35.3286,"MEAN_ANOMALY":328.4954,"EPHEMERIS_TYPE":0,"CLASSIFICATION_TYPE":"U","NORAD_CAT_ID":12388,"ELEMENT_SET_NO":999,"REV_AT_EPOCH":25724,"BSTAR":0.00036478764,"MEAN_MOTION_DOT":6.481e-5,"MEAN_MOTION_DDOT":0}]
